[{"OBJECT_NAME":"LKW-3","OBJECT_ID":"2018-006A","EPOCH":"2026-03-09T23:35:48.740928","MEAN_MOTION":15.33087407,"ECCENTRICITY":0.00022503,"INCLINATION":97.6481,"RA_OF_ASC_NODE":225.9034,"ARG_OF_PERICENTER":308.148,"MEAN_ANOMALY":51.9559,"EPHEMERIS_TYPE":0,"CLASSIFICATION_TYPE":"U","NORAD_CAT_ID":43146,"ELEMENT_SET_NO":999,"REV_AT_EPOCH":45350,"BSTAR":0.00042518021,"MEAN_MOTION_DOT":0.00013518,"MEAN_MOTION_DDOT":0},{"OBJECT_NAME":"STARLINK-32864","OBJECT_ID":"2025-022J","EPOCH":"2026-03-09T10:40:42.832416","MEAN_MOTION":15.3019107,"ECCENTRICITY":0.00011983,"INCLINATION":53.1579,"RA_OF_ASC_NODE":130.6677,"ARG_OF_PERICENTER":89.2302,"MEAN_ANOMALY":270.8836,"EPHEMERIS_TYPE":0,"CLASSIFICATION_TYPE":"U","NORAD_CAT_ID":62862,"ELEMENT_SET_NO":999,"REV_AT_EPOCH":6186,"BSTAR":0.00069736046,"MEAN_MOTION_DOT":0.00020346,"MEAN_MOTION_DDOT":0}]
